CCSDS_OMM_VERS = 2.0
CREATION_DATE  = 
ORIGINATOR     = 

OBJECT_NAME    = SL-16 R/B
OBJECT_ID      = 1993-016B
CENTER_NAME    = EARTH
REF_FRAME      = TEME
TIME_SYSTEM    = UTC
MEAN_ELEMENT_THEORY = SGP/SGP4

EPOCH          = 2025-12-07T04:36:50.895072
MEAN_MOTION    = 14.15287799
ECCENTRICITY   = .00078251
INCLINATION    = 71.0088
RA_OF_ASC_NODE = 49.4550
ARG_OF_PERICENTER = 108.2817
MEAN_ANOMALY   = 251.9158

EPHEMERIS_TYPE = 0
CLASSIFICATION_TYPE = U
NORAD_CAT_ID   = 22566
ELEMENT_SET_NO = 999
REV_AT_EPOCH   = 68908
BSTAR          = -.70066559E-4
MEAN_MOTION_DOT = -.184E-5
MEAN_MOTION_DDOT = 0

CCSDS_OMM_VERS = 2.0
CREATION_DATE  = 
ORIGINATOR     = 

OBJECT_NAME    = COSMOS 2242
OBJECT_ID      = 1993-024A
CENTER_NAME    = EARTH
REF_FRAME      = TEME
TIME_SYSTEM    = UTC
MEAN_ELEMENT_THEORY = SGP/SGP4

EPOCH          = 2025-12-07T00:25:20.562240
MEAN_MOTION    = 14.96071170
ECCENTRICITY   = .00147893
INCLINATION    = 82.5188
RA_OF_ASC_NODE = 355.3144
ARG_OF_PERICENTER = 255.2802
MEAN_ANOMALY   = 104.6781

EPHEMERIS_TYPE = 0
CLASSIFICATION_TYPE = U
NORAD_CAT_ID   = 22626
ELEMENT_SET_NO = 999
REV_AT_EPOCH   = 76653
BSTAR          = .28100316E-3
MEAN_MOTION_DOT = .3188E-4
MEAN_MOTION_DDOT = 0

CCSDS_OMM_VERS = 2.0
CREATION_DATE  = 
ORIGINATOR     = 

OBJECT_NAME    = SL-16 R/B
OBJECT_ID      = 1993-059B
CENTER_NAME    = EARTH
REF_FRAME      = TEME
TIME_SYSTEM    = UTC
MEAN_ELEMENT_THEORY = SGP/SGP4

EPOCH          = 2025-12-07T00:21:34.599456
MEAN_MOTION    = 14.17212491
ECCENTRICITY   = .00176514
INCLINATION    = 70.9899
RA_OF_ASC_NODE = 206.5581
ARG_OF_PERICENTER = 343.9149
MEAN_ANOMALY   = 16.1412

EPHEMERIS_TYPE = 0
CLASSIFICATION_TYPE = U
NORAD_CAT_ID   = 22803
ELEMENT_SET_NO = 999
REV_AT_EPOCH   = 66640
BSTAR          = .14338166E-3
MEAN_MOTION_DOT = .242E-5
MEAN_MOTION_DDOT = 0

CCSDS_OMM_VERS = 2.0
CREATION_DATE  = 
ORIGINATOR     = 

OBJECT_NAME    = ARIANE 40 R/B
OBJECT_ID      = 1993-061H
CENTER_NAME    = EARTH
REF_FRAME      = TEME
TIME_SYSTEM    = UTC
MEAN_ELEMENT_THEORY = SGP/SGP4

EPOCH          = 2025-12-07T00:45:28.220832
MEAN_MOTION    = 14.32795682
ECCENTRICITY   = .00105515
INCLINATION    = 98.5083
RA_OF_ASC_NODE = 46.6652
ARG_OF_PERICENTER = 192.9010
MEAN_ANOMALY   = 167.1906

EPHEMERIS_TYPE = 0
CLASSIFICATION_TYPE = U
NORAD_CAT_ID   = 22830
ELEMENT_SET_NO = 999
REV_AT_EPOCH   = 68083
BSTAR          = .20858997E-3
MEAN_MOTION_DOT = .526E-5
MEAN_MOTION_DDOT = 0

CCSDS_OMM_VERS = 2.0
CREATION_DATE  = 
ORIGINATOR     = 

OBJECT_NAME    = COSMOS 2278
OBJECT_ID      = 1994-023A
CENTER_NAME    = EARTH
REF_FRAME      = TEME
TIME_SYSTEM    = UTC
MEAN_ELEMENT_THEORY = SGP/SGP4

EPOCH          = 2025-12-07T02:09:42.017760
MEAN_MOTION    = 14.14351355
ECCENTRICITY   = .00086323
INCLINATION    = 71.0548
RA_OF_ASC_NODE = 8.8312
ARG_OF_PERICENTER = 188.5051
MEAN_ANOMALY   = 171.5927

EPHEMERIS_TYPE = 0
CLASSIFICATION_TYPE = U
NORAD_CAT_ID   = 23087
ELEMENT_SET_NO = 999
REV_AT_EPOCH   = 63171
BSTAR          = -.312221E-5
MEAN_MOTION_DOT = -.53E-6
MEAN_MOTION_DDOT = 0

CCSDS_OMM_VERS = 2.0
CREATION_DATE  = 
ORIGINATOR     = 

OBJECT_NAME    = SL-16 R/B
OBJECT_ID      = 1994-023B
CENTER_NAME    = EARTH
REF_FRAME      = TEME
TIME_SYSTEM    = UTC
MEAN_ELEMENT_THEORY = SGP/SGP4

EPOCH          = 2025-12-07T04:17:29.593536
MEAN_MOTION    = 14.15000824
ECCENTRICITY   = .00011243
INCLINATION    = 71.0007
RA_OF_ASC_NODE = 265.1632
ARG_OF_PERICENTER = 52.3112
MEAN_ANOMALY   = 307.8112

EPHEMERIS_TYPE = 0
CLASSIFICATION_TYPE = U
NORAD_CAT_ID   = 23088
ELEMENT_SET_NO = 999
REV_AT_EPOCH   = 63300
BSTAR          = .18233954E-3
MEAN_MOTION_DOT = .305E-5
MEAN_MOTION_DDOT = 0

CCSDS_OMM_VERS = 2.0
CREATION_DATE  = 
ORIGINATOR     = 

OBJECT_NAME    = SL-16 R/B
OBJECT_ID      = 1994-074B
CENTER_NAME    = EARTH
REF_FRAME      = TEME
TIME_SYSTEM    = UTC
MEAN_ELEMENT_THEORY = SGP/SGP4

EPOCH          = 2025-12-07T07:43:10.185888
MEAN_MOTION    = 14.79280595
ECCENTRICITY   = .0007189
INCLINATION    = 97.7206
RA_OF_ASC_NODE = 10.8414
ARG_OF_PERICENTER = 151.3305
MEAN_ANOMALY   = 219.1260

EPHEMERIS_TYPE = 0
CLASSIFICATION_TYPE = U
NORAD_CAT_ID   = 23343
ELEMENT_SET_NO = 999
REV_AT_EPOCH   = 67359
BSTAR          = .1378444E-3
MEAN_MOTION_DOT = .976E-5
MEAN_MOTION_DDOT = 0

CCSDS_OMM_VERS = 2.0
CREATION_DATE  = 
ORIGINATOR     = 

OBJECT_NAME    = SL-16 R/B
OBJECT_ID      = 1994-077B
CENTER_NAME    = EARTH
REF_FRAME      = TEME
TIME_SYSTEM    = UTC
MEAN_ELEMENT_THEORY = SGP/SGP4

EPOCH          = 2025-12-07T06:24:41.655456
MEAN_MOTION    = 14.15546691
ECCENTRICITY   = .00045965
INCLINATION    = 70.9811
RA_OF_ASC_NODE = 186.9267
ARG_OF_PERICENTER = 288.3214
MEAN_ANOMALY   = 71.7409

EPHEMERIS_TYPE = 0
CLASSIFICATION_TYPE = U
NORAD_CAT_ID   = 23405
ELEMENT_SET_NO = 999
REV_AT_EPOCH   = 60315
BSTAR          = .12820977E-3
MEAN_MOTION_DOT = .203E-5
MEAN_MOTION_DDOT = 0

CCSDS_OMM_VERS = 2.0
CREATION_DATE  = 
ORIGINATOR     = 

OBJECT_NAME    = ARIANE 40+ R/B
OBJECT_ID      = 1995-021B
CENTER_NAME    = EARTH
REF_FRAME      = TEME
TIME_SYSTEM    = UTC
MEAN_ELEMENT_THEORY = SGP/SGP4

EPOCH          = 2025-12-07T04:04:58.486368
MEAN_MOTION    = 14.39688931
ECCENTRICITY   = .00076638
INCLINATION    = 98.4657
RA_OF_ASC_NODE = 48.8259
ARG_OF_PERICENTER = 64.4907
MEAN_ANOMALY   = 322.9459

EPHEMERIS_TYPE = 0
CLASSIFICATION_TYPE = U
NORAD_CAT_ID   = 23561
ELEMENT_SET_NO = 999
REV_AT_EPOCH   = 60593
BSTAR          = .21153504E-3
MEAN_MOTION_DOT = .619E-5
MEAN_MOTION_DDOT = 0

CCSDS_OMM_VERS = 2.0
CREATION_DATE  = 
ORIGINATOR     = 

OBJECT_NAME    = SL-16 R/B
OBJECT_ID      = 1995-058B
CENTER_NAME    = EARTH
REF_FRAME      = TEME
TIME_SYSTEM    = UTC
MEAN_ELEMENT_THEORY = SGP/SGP4

EPOCH          = 2025-12-06T20:17:36.720096
MEAN_MOTION    = 14.15481149
ECCENTRICITY   = .00148965
INCLINATION    = 71.0225
RA_OF_ASC_NODE = 15.1794
ARG_OF_PERICENTER = 262.5657
MEAN_ANOMALY   = 97.3774

EPHEMERIS_TYPE = 0
CLASSIFICATION_TYPE = U
NORAD_CAT_ID   = 23705
ELEMENT_SET_NO = 999
REV_AT_EPOCH   = 55471
BSTAR          = .19327764E-3
MEAN_MOTION_DOT = .33E-5
MEAN_MOTION_DDOT = 0

CCSDS_OMM_VERS = 2.0
CREATION_DATE  = 
ORIGINATOR     = 

OBJECT_NAME    = SL-16 R/B
OBJECT_ID      = 1996-051B
CENTER_NAME    = EARTH
REF_FRAME      = TEME
TIME_SYSTEM    = UTC
MEAN_ELEMENT_THEORY = SGP/SGP4

EPOCH          = 2025-12-07T00:50:51.044928
MEAN_MOTION    = 14.12395791
ECCENTRICITY   = .0019295
INCLINATION    = 70.7598
RA_OF_ASC_NODE = 11.3588
ARG_OF_PERICENTER = 268.3488
MEAN_ANOMALY   = 91.5421

EPHEMERIS_TYPE = 0
CLASSIFICATION_TYPE = U
NORAD_CAT_ID   = 24298
ELEMENT_SET_NO = 999
REV_AT_EPOCH   = 50856
BSTAR          = .5720286E-4
MEAN_MOTION_DOT = .56E-6
MEAN_MOTION_DDOT = 0

CCSDS_OMM_VERS = 2.0
CREATION_DATE  = 
ORIGINATOR     = 

OBJECT_NAME    = ORBVIEW 2 (SEASTAR)
OBJECT_ID      = 1997-037A
CENTER_NAME    = EARTH
REF_FRAME      = TEME
TIME_SYSTEM    = UTC
MEAN_ELEMENT_THEORY = SGP/SGP4

EPOCH          = 2025-12-07T06:27:32.037120
MEAN_MOTION    = 14.35410911
ECCENTRICITY   = .00019231
INCLINATION    = 98.8455
RA_OF_ASC_NODE = 138.2059
ARG_OF_PERICENTER = 359.4054
MEAN_ANOMALY   = 0.7128

EPHEMERIS_TYPE = 0
CLASSIFICATION_TYPE = U
NORAD_CAT_ID   = 24883
ELEMENT_SET_NO = 999
REV_AT_EPOCH   = 49521
BSTAR          = .23386495E-3
MEAN_MOTION_DOT = .625E-5
MEAN_MOTION_DDOT = 0

