SL-16 R/B               
1 22566U 93016B   25341.19225573 -.00000184  00000+0 -70067-4 0  9997
2 22566  71.0088  49.4550 0007825 108.2817 251.9158 14.15287799689088
COSMOS 2242             
1 22626U 93024A   25341.01759910  .00003188  00000+0  28100-3 0  9996
2 22626  82.5188 355.3144 0014789 255.2802 104.6781 14.96071170766530
SL-16 R/B               
1 22803U 93059B   25341.01498379  .00000242  00000+0  14338-3 0  9996
2 22803  70.9899 206.5581 0017651 343.9149  16.1412 14.17212491666408
ARIANE 40 R/B           
1 22830U 93061H   25341.03157663  .00000526  00000+0  20859-3 0  9999
2 22830  98.5083  46.6652 0010551 192.9010 167.1906 14.32795682680835
COSMOS 2278             
1 23087U 94023A   25341.09006965 -.00000053  00000+0 -31222-5 0  9992
2 23087  71.0548   8.8312 0008632 188.5051 171.5927 14.14351355631718
SL-16 R/B               
1 23088U 94023B   25341.17881474  .00000305  00000+0  18234-3 0  9992
2 23088  71.0007 265.1632 0001124  52.3112 307.8112 14.15000824633004
SL-16 R/B               
1 23343U 94074B   25341.32164567  .00000976  00000+0  13784-3 0  9995
2 23343  97.7206  10.8414 0007189 151.3305 219.1260 14.79280595673590
SL-16 R/B               
1 23405U 94077B   25341.26714879  .00000203  00000+0  12821-3 0  9991
2 23405  70.9811 186.9267 0004596 288.3214  71.7409 14.15546691603158
ARIANE 40+ R/B          
1 23561U 95021B   25341.17012137  .00000619  00000+0  21154-3 0  9992
2 23561  98.4657  48.8259 0007663  64.4907 322.9459 14.39688931605935
SL-16 R/B               
1 23705U 95058B   25340.84556389  .00000330  00000+0  19328-3 0  9997
2 23705  71.0225  15.1794 0014896 262.5657  97.3774 14.15481149554711
SL-16 R/B               
1 24298U 96051B   25341.03531302  .00000056  00000+0  57203-4 0  9999
2 24298  70.7598  11.3588 0019295 268.3488  91.5421 14.12395791508562
ORBVIEW 2 (SEASTAR)     
1 24883U 97037A   25341.26912080  .00000625  00000+0  23386-3 0  9991
2 24883  98.8455 138.2059 0001923 359.4054   0.7128 14.35410911495217
